NORAD_CAT_ID,OBJECT_NAME,OBJECT_TYPE,EPOCH,MEAN_MOTION,ECCENTRICITY,INCLINATION,RA_OF_ASC_NODE,ARG_OF_PERICENTER,MEAN_ANOMALY,BSTAR,MEAN_MOTION_DOT,MEAN_MOTION_DDOT,TLE_LINE0,TLE_LINE1,TLE_LINE2,SEMIMAJOR_AXIS,PERIOD,APOGEE,PERIGEE,DECAYED
53435.0,STARLINK-4542,PAYLOAD,2024-06-03 14:49:39,15.08845474,0.0001206,53.2172,115.2727,89.5203,270.5927,0.00010196,1.335e-05,0.0,0 STARLINK-4542,1 53435U 22097AZ  24155.61782224  .00001335  00000-0  10196-3 0  9991,2 53435  53.2172 115.2727 0001206  89.5203 270.5927 15.08845474101531,6917.864,95.437,540.563,538.894,0.0
53435.0,STARLINK-4542,PAYLOAD,2024-06-04 03:32:45,15.0882823,0.0001312,53.2176,112.8924,93.9304,266.1839,0.00020524,2.979e-05,0.0,0 STARLINK-4542,1 53435U 22097AZ  24156.14775160  .00002979  00000-0  20524-3 0  9992,2 53435  53.2176 112.8924 0001312  93.9304 266.1839 15.08828230101158,6917.916,95.438,540.689,538.874,0.0
53435.0,STARLINK-4542,PAYLOAD,2024-06-04 21:01:59,15.08843769,0.0002135,53.2173,109.6217,95.3512,264.7724,0.00010081,1.317e-05,0.0,0 STARLINK-4542,1 53435U 22097AZ  24156.87638404  .00001317  00000-0  10081-3 0  9993,2 53435  53.2173 109.6217 0002135  95.3512 264.7724 15.08843769101268,6917.869,95.437,541.211,538.257,0.0
53435.0,STARLINK-4542,PAYLOAD,2024-06-05 03:23:32,15.08835363,0.000147,53.2181,108.4321,107.6499,252.4654,-3.578e-05,-8.57e-06,0.0,0 STARLINK-4542,1 53435U 22097AZ  24157.14135197 -.00000857  00000-0 -35780-4 0  9999,2 53435  53.2181 108.4321 0001470 107.6499 252.4654 15.08835363101304,6917.895,95.438,540.776,538.743,0.0
53435.0,STARLINK-4542,PAYLOAD,2024-06-05 06:34:19,15.08835913,0.0001477,53.2185,107.8377,103.5427,256.5729,-3.3663e-05,-8.24e-06,0.0,0 STARLINK-4542,1 53435U 22097AZ  24157.27383186 -.00000824  00000-0 -33663-4 0  9998,2 53435  53.2185 107.8377 0001477 103.5427 256.5729 15.08835913101786,6917.893,95.438,540.78,538.736,0.0
53435.0,STARLINK-4542,PAYLOAD,2024-06-06 03:14:19,15.08839639,0.0001227,53.2181,103.974,96.8876,263.2256,8.2863e-05,1.031e-05,0.0,0 STARLINK-4542,1 53435U 22097AZ  24158.13494693  .00001031  00000-0  82863-4 0  9995,2 53435  53.2181 103.9740 0001227  96.8876 263.2256 15.08839639101451,6917.881,95.438,540.595,538.898,0.0
53435.0,STARLINK-4542,PAYLOAD,2024-06-08 04:31:16,15.08846103,0.0001346,53.2185,94.7556,89.6737,270.4409,0.00011589,1.557e-05,0.0,0 STARLINK-4542,1 53435U 22097AZ  24160.18838611  .00001557  00000-0  11589-3 0  9994,2 53435  53.2185  94.7556 0001346  89.6737 270.4409 15.08846103101763,6917.862,95.437,540.658,538.796,0.0
53435.0,STARLINK-4542,PAYLOAD,2024-06-08 12:28:12,15.08847314,0.0001342,53.2185,93.2687,92.3159,267.7987,0.00011657,1.568e-05,0.0,0 STARLINK-4542,1 53435U 22097AZ  24160.51958417  .00001568  00000-0  11657-3 0  9996,2 53435  53.2185  93.2687 0001342  92.3159 267.7987 15.08847314102279,6917.858,95.437,540.651,538.795,0.0
53435.0,STARLINK-4542,PAYLOAD,2024-06-09 01:11:19,15.08825673,0.0002331,53.2189,90.89,86.2789,273.847,-0.00012414,-2.263e-05,0.0,0 STARLINK-4542,1 53435U 22097AZ  24161.04953228 -.00002263  00000-0 -12414-3 0  9997,2 53435  53.2189  90.8900 0002331  86.2789 273.8470 15.08825673101890,6917.924,95.438,541.402,538.177,0.0
53435.0,STARLINK-4542,PAYLOAD,2024-06-09 18:40:33,15.08841737,0.0002155,53.2199,87.6162,81.1586,278.965,-2.4005e-05,-6.7e-06,0.0,0 STARLINK-4542,1 53435U 22097AZ  24161.77816156 -.00000670  00000-0 -24005-4 0  9995,2 53435  53.2199  87.6162 0002155  81.1586 278.9650 15.08841737102007,6917.875,95.437,541.231,538.249,0.0
53435.0,STARLINK-4542,PAYLOAD,2024-06-10 12:09:46,15.08855888,0.0001309,53.2174,84.3456,84.2041,275.91,0.00030762,4.613e-05,0.0,0 STARLINK-4542,1 53435U 22097AZ  24162.50679068  .00004613  00000-0  30762-3 0  9991,2 53435  53.2174  84.3456 0001309  84.2041 275.9100 15.08855888102111,6917.832,95.437,540.602,538.791,0.0
53435.0,STARLINK-4542,PAYLOAD,2024-06-11 04:03:38,15.08845677,0.0001302,53.2162,81.3711,110.0036,250.1097,0.00030968,4.645e-05,0.0,0 STARLINK-4542,1 53435U 22097AZ  24163.16919788  .00004645  00000-0  30968-3 0  9993,2 53435  53.2162  81.3711 0001302 110.0036 250.1097 15.08845677102210,6917.863,95.437,540.629,538.827,0.0
53435.0,STARLINK-4542,PAYLOAD,2024-06-11 12:00:33,15.08862018,0.0001248,53.2166,79.8852,105.5289,254.5841,0.00060774,9.403e-05,0.0,0 STARLINK-4542,1 53435U 22097AZ  24163.50039115  .00009403  00000-0  60774-3 0  9993,2 53435  53.2166  79.8852 0001248 105.5289 254.5841 15.08862018102729,6917.813,95.436,540.541,538.815,0.0
53435.0,STARLINK-4542,PAYLOAD,2024-06-12 00:43:39,15.0884882,0.0001497,53.2178,77.5063,88.4936,271.6227,0.00029882,4.472e-05,0.0,0 STARLINK-4542,1 53435U 22097AZ  24164.03031353  .00004472  00000-0  29882-3 0  9994,2 53435  53.2178  77.5063 0001497  88.4936 271.6227 15.08848820102807,6917.853,95.437,540.754,538.683,0.0
53435.0,STARLINK-4542,PAYLOAD,2024-06-12 11:51:20,15.08855083,0.0001467,53.2175,75.4249,93.1336,266.9824,0.00050745,7.801e-05,0.0,0 STARLINK-4542,1 53435U 22097AZ  24164.49399013  .00007801  00000-0  50745-3 0  9995,2 53435  53.2175  75.4249 0001467  93.1336 266.9824 15.08855083102417,6917.834,95.437,540.714,538.684,0.0
53435.0,STARLINK-4542,PAYLOAD,2024-06-12 21:23:39,15.08840597,0.000158,53.2168,73.64,107.9382,252.1782,6.4859e-05,7.44e-06,0.0,0 STARLINK-4542,1 53435U 22097AZ  24164.89143338  .00000744  00000-0  64859-4 0  9997,2 53435  53.2168  73.6400 0001580 107.9382 252.1782 15.08840597102479,6917.879,95.438,540.837,538.651,0.0
53435.0,STARLINK-4542,PAYLOAD,2024-06-13 00:34:26,15.08836809,0.0001405,53.2164,73.0472,98.3908,261.7243,0.00045957,7.033e-05,0.0,0 STARLINK-4542,1 53435U 22097AZ  24165.02391524  .00007033  00000-0  45957-3 0  9990,2 53435  53.2164  73.0472 0001405  98.3908 261.7243 15.08836809102953,6917.89,95.438,540.727,538.783,0.0
53435.0,STARLINK-4542,PAYLOAD,2024-06-13 22:49:50,15.08842657,0.0001638,53.218,68.883,109.8269,250.29,0.00058044,8.962e-05,0.0,0 STARLINK-4542,1 53435U 22097AZ  24165.95127946  .00008962  00000-0  58044-3 0  9990,2 53435  53.2180  68.8830 0001638 109.8269 250.2900 15.08842657103094,6917.872,95.437,540.87,538.604,0.0
53435.0,STARLINK-4542,PAYLOAD,2024-06-14 00:25:13,15.08841628,0.0001511,53.2178,68.5871,103.1709,256.9452,0.00050764,7.801e-05,0.0,0 STARLINK-4542,1 53435U 22097AZ  24166.01752011  .00007801  00000-0  50764-3 0  9997,2 53435  53.2178  68.5871 0001511 103.1709 256.9452 15.08841628103103,6917.875,95.437,540.786,538.695,0.0
53435.0,STARLINK-4542,PAYLOAD,2024-06-14 22:40:37,15.08843368,0.0001433,53.218,64.4263,92.2635,267.8521,0.00022175,3.243e-05,0.0,0 STARLINK-4542,1 53435U 22097AZ  24166.94488016  .00003243  00000-0  22175-3 0  9991,2 53435  53.2180  64.4263 0001433  92.2635 267.8521 15.08843368103241,6917.87,95.437,540.726,538.744,0.0
53435.0,STARLINK-4542,PAYLOAD,2024-06-15 00:16:00,15.08843294,0.000144,53.2181,64.1292,92.2931,267.8226,0.00023266,3.417e-05,0.0,0 STARLINK-4542,1 53435U 22097AZ  24167.01112047  .00003417  00000-0  23266-3 0  9993,2 53435  53.2181  64.1292 0001440  92.2931 267.8226 15.08843294103259,6917.87,95.437,540.731,538.739,0.0
53435.0,STARLINK-4542,PAYLOAD,2024-06-15 22:31:24,15.08845999,0.0001349,53.2177,59.9661,92.1313,267.9833,0.00017236,2.457e-05,0.0,0 STARLINK-4542,1 53435U 22097AZ  24167.93847821  .00002457  00000-0  17236-3 0  9992,2 53435  53.2177  59.9661 0001349  92.1313 267.9833 15.08845999103391,6917.862,95.437,540.66,538.794,0.0
53435.0,STARLINK-4542,PAYLOAD,2024-06-16 09:39:06,15.08855228,0.0001349,53.2176,57.8818,71.0355,289.0783,0.00030267,4.534e-05,0.0,0 STARLINK-4542,1 53435U 22097AZ  24168.40215278  .00004534  00000-0  30267-3 0  9997,2 53435  53.2176  57.8818 0001349  71.0355 289.0783 15.08855228103466,6917.834,95.437,540.632,538.766,0.0
53435.0,STARLINK-4542,PAYLOAD,2024-06-16 22:22:12,15.08830836,0.0001535,53.2175,55.5042,79.0192,281.0972,-0.0001145,-2.109e-05,0.0,0 STARLINK-4542,1 53435U 22097AZ  24168.93208403 -.00002109  00000-0 -11450-3 0  9998,2 53435  53.2175  55.5042 0001535  79.0192 281.0972 15.08830836103542,6917.908,95.438,540.835,538.712,0.0
53435.0,STARLINK-4542,PAYLOAD,2024-06-17 20:37:36,15.08837206,0.0001351,53.2169,51.3378,81.2769,278.8377,4.1972e-05,3.8e-06,0.0,0 STARLINK-4542,1 53435U 22097AZ  24169.85944499  .00000380  00000-0  41972-4 0  9992,2 53435  53.2169  51.3378 0001351  81.2769 278.8377 15.08837206103228,6917.889,95.438,540.689,538.819,0.0
53435.0,STARLINK-4542,PAYLOAD,2024-06-17 22:12:59,15.08835952,0.0001176,53.2157,51.043,87.0947,273.018,7.6017e-05,9.22e-06,0.0,0 STARLINK-4542,1 53435U 22097AZ  24169.92568571  .00000922  00000-0  76017-4 0  9993,2 53435  53.2157  51.0430 0001176  87.0947 273.0180 15.08835952103694,6917.893,95.438,540.571,538.944,0.0
53435.0,STARLINK-4542,PAYLOAD,2024-06-18 09:20:40,15.08846626,0.0001254,53.2169,48.9605,87.4712,272.6424,0.00026767,3.975e-05,0.0,0 STARLINK-4542,1 53435U 22097AZ  24170.38936090  .00003975  00000-0  26767-3 0  9997,2 53435  53.2169  48.9605 0001254  87.4712 272.6424 15.08846626103301,6917.86,95.437,540.593,538.858,0.0
53435.0,STARLINK-4542,PAYLOAD,2024-06-18 22:03:46,15.08833723,0.0001423,53.2183,46.5802,90.0397,270.0758,0.00015958,2.252e-05,0.0,0 STARLINK-4542,1 53435U 22097AZ  24170.91929013  .00002252  00000-0  15958-3 0  9990,2 53435  53.2183  46.5802 0001423  90.0397 270.0758 15.08833723103381,6917.9,95.438,540.749,538.78,0.0
53435.0,STARLINK-4542,PAYLOAD,2024-06-19 09:11:28,15.08847247,0.0001461,53.2165,44.5022,86.3911,273.7248,0.00021362,3.114e-05,0.0,0 STARLINK-4542,1 53435U 22097AZ  24171.38296308  .00003114  00000-0  21362-3 0  9990,2 53435  53.2165  44.5022 0001461  86.3911 273.7248 15.08847247103453,6917.858,95.437,540.734,538.713,0.0
53435.0,STARLINK-4542,PAYLOAD,2024-06-19 20:19:10,15.08836562,0.0001573,53.2197,42.4186,101.4731,258.6438,8.7685e-05,1.108e-05,0.0,0 STARLINK-4542,1 53435U 22097AZ  24171.84664872  .00001108  00000-0  87685-4 0  9998,2 53435  53.2197  42.4186 0001573 101.4731 258.6438 15.08836562103528,6917.891,95.438,540.844,538.668,0.0
